NORAD_CAT_ID,OBJECT_NAME,OBJECT_TYPE,EPOCH,MEAN_MOTION,ECCENTRICITY,INCLINATION,RA_OF_ASC_NODE,ARG_OF_PERICENTER,MEAN_ANOMALY,BSTAR,MEAN_MOTION_DOT,MEAN_MOTION_DDOT,TLE_LINE0,TLE_LINE1,TLE_LINE2,SEMIMAJOR_AXIS,PERIOD,APOGEE,PERIGEE,DECAYED
51148.0,STARLINK-3359,PAYLOAD,2022-10-07 22:06:11,15.08831333,0.0001573,53.2168,155.0621,53.9566,306.1571,8.7053e-05,1.097e-05,0.0,0 STARLINK-3359,1 51148U 22005AW  22280.92096312  .00001097  00000-0  87053-4 0  9998,2 51148  53.2168 155.0621 0001573  53.9566 306.1571 15.08831333 40075,6917.906999999997,95.438,540.86,538.684,0.0
51148.0,STARLINK-3359,PAYLOAD,2022-10-08 01:16:57,15.08838567,0.0001643,53.2169,154.4667,57.047,303.068,5.3222e-05,5.59e-06,0.0,0 STARLINK-3359,1 51148U 22005AW  22281.05343985  .00000559  00000-0  53222-4 0  9997,2 51148  53.2169 154.4667 0001643  57.0470 303.0680 15.08838567 40091,6917.885,95.438,540.886,538.613,0.0
51148.0,STARLINK-3359,PAYLOAD,2022-10-08 20:21:36,15.08818839,0.0001418,53.2172,150.8968,53.161,306.9512,0.00016287,2.304e-05,0.0,0 STARLINK-3359,1 51148U 22005AW  22281.84833358  .00002304  00000-0  16287-3 0  9991,2 51148  53.2172 150.8968 0001418  53.1610 306.9512 15.08818839 41325,6917.945,95.439,540.7909999999998,538.8290000000002,0.0
51148.0,STARLINK-3359,PAYLOAD,2022-10-09 01:07:44,15.08834375,0.000169,53.2168,150.0052,54.6929,305.4221,-8.8897e-06,-4.3e-06,0.0,0 STARLINK-3359,1 51148U 22005AW  22282.04704860 -.00000430  00000-0 -88897-5 0  9997,2 51148  53.2168 150.0052 0001690  54.6929 305.4221 15.08834375 40241,6917.898,95.438,540.932,538.5930000000002,0.0
51148.0,STARLINK-3359,PAYLOAD,2022-10-09 18:36:58,15.08845601,0.0001684,53.2167,146.7353,50.5547,309.5594,0.00010252,1.344e-05,0.0,0 STARLINK-3359,1 51148U 22005AW  22282.77567653  .00001344  00000-0  10252-3 0  9995,2 51148  53.2167 146.7353 0001684  50.5547 309.5594 15.08845601 41467,6917.863,95.437,540.893,538.563,0.0
51148.0,STARLINK-3359,PAYLOAD,2022-10-09 20:12:21,15.08846178,0.0001692,53.2167,146.4379,50.3503,309.7639,0.00010867,1.442e-05,0.0,0 STARLINK-3359,1 51148U 22005AW  22282.84191607  .00001442  00000-0  10867-3 0  9996,2 51148  53.2167 146.4379 0001692  50.3503 309.7639 15.08846178 40361,6917.861999999999,95.437,540.8969999999998,538.556,0.0
51148.0,STARLINK-3359,PAYLOAD,2022-10-10 00:58:31,15.08835721,0.000174,53.2161,145.547,51.6721,308.4427,4.5403e-05,4.35e-06,0.0,0 STARLINK-3359,1 51148U 22005AW  22283.04064567  .00000435  00000-0  45403-4 0  9999,2 51148  53.2161 145.5470 0001740  51.6721 308.4427 15.08835721 40393,6917.893,95.438,540.962,538.555,0.0
51148.0,STARLINK-3359,PAYLOAD,2022-10-10 18:27:46,15.08836976,0.0001720999999999,53.2155,142.2764,51.8173,308.2974,5.4202e-05,5.75e-06,0.0,0 STARLINK-3359,1 51148U 22005AW  22283.76928595  .00000575  00000-0  54202-4 0  9990,2 51148  53.2155 142.2764 0001721  51.8173 308.2974 15.08836976 40509,6917.89,95.438,540.945,538.564,0.0
51148.0,STARLINK-3359,PAYLOAD,2022-10-11 16:43:11,15.08808306,0.0001829,53.2157,138.1132,54.3759,305.7403,0.00015248,2.137e-05,0.0,0 STARLINK-3359,1 51148U 22005AW  22284.69666230  .00002137  00000-0  15248-3 0  9990,2 51148  53.2157 138.1132 0001829  54.3759 305.7403 15.08808306 41754,6917.977,95.44,541.1080000000002,538.577,0.0
51148.0,STARLINK-3359,PAYLOAD,2022-10-12 08:37:02,15.08831173,0.0001746,53.2158,135.1392,52.9261,307.1891,7.4265e-06,-1.7e-06,0.0,0 STARLINK-3359,1 51148U 22005AW  22285.35905986 -.00000170  00000-0  74265-5 0  9990,2 51148  53.2158 135.1392 0001746  52.9261 307.1891 15.08831173 40743,6917.906999999997,95.438,540.98,538.565,0.0
51148.0,STARLINK-3359,PAYLOAD,2022-10-12 16:33:58,15.0883277,0.0001696999999999,53.2161,133.6521,53.7021,306.4127,0.00013907,1.926e-05,0.0,0 STARLINK-3359,1 51148U 22005AW  22285.69025499  .00001926  00000-0  13907-3 0  9992,2 51148  53.2161 133.6521 0001697  53.7021 306.4127 15.08832770 40795,6917.901999999999,95.438,540.941,538.594,0.0
51148.0,STARLINK-3359,PAYLOAD,2022-10-13 06:52:26,15.08798167,0.0001869,53.2161,130.9762,57.0321,303.0851,0.00041724,6.351e-05,0.0,0 STARLINK-3359,1 51148U 22005AW  22286.28642290  .00006351  00000-0  41724-3 0  9997,2 51148  53.2161 130.9762 0001869  57.0321 303.0851 15.08798167 40881,6918.0080000000025,95.44,541.1659999999998,538.58,0.0
51148.0,STARLINK-3359,PAYLOAD,2022-10-13 16:24:46,15.08801175,0.000195,53.2161,129.1918,57.2362,302.8818,0.0005201,7.99e-05,0.0,0 STARLINK-3359,1 51148U 22005AW  22286.68386589  .00007990  00000-0  52010-3 0  9997,2 51148  53.2161 129.1918 0001950  57.2362 302.8818 15.08801175 40943,6917.999,95.44,541.2130000000002,538.515,0.0
51148.0,STARLINK-3359,PAYLOAD,2022-10-13 22:46:18,15.08812935,0.0001921,53.2159,128.0023,58.0104,302.1074,0.00048737,7.471e-05,0.0,0 STARLINK-3359,1 51148U 22005AW  22286.94882475  .00007471  00000-0  48737-3 0  9996,2 51148  53.2159 128.0023 0001921  58.0104 302.1074 15.08812935 42097,6917.9630000000025,95.439,541.1569999999998,538.499,0.0
51148.0,STARLINK-3359,PAYLOAD,2022-10-14 08:18:36,15.08850729,0.0001858,53.216,126.2178,55.3377,304.779,0.00010625,1.404e-05,0.0,0 STARLINK-3359,1 51148U 22005AW  22287.34625280  .00001404  00000-0  10625-3 0  9995,2 51148  53.2160 126.2178 0001858  55.3377 304.7790 15.08850729 41041,6917.848000000001,95.437,540.998,538.427,0.0
51148.0,STARLINK-3359,PAYLOAD,2022-10-14 19:26:20,15.08789985,0.0001274,53.2162,124.1358,59.2233,300.8885,0.00079429,0.00012359,0.0,0 STARLINK-3359,1 51148U 22005AW  22287.80995393  .00012359  00000-0  79429-3 0  9999,2 51148  53.2162 124.1358 0001274  59.2233 300.8885 15.08789985 41111,6918.033,95.441,540.78,539.0169999999998,0.0
51148.0,STARLINK-3359,PAYLOAD,2022-10-14 21:01:41,15.08842128,0.0001879,53.2162,123.8384,56.24,303.8771,0.00010844,1.438e-05,0.0,0 STARLINK-3359,1 51148U 22005AW  22287.87617617  .00001438  00000-0  10844-3 0  9998,2 51148  53.2162 123.8384 0001879  56.2400 303.8771 15.08842128 42230,6917.874,95.437,541.039,538.439,0.0
51148.0,STARLINK-3359,PAYLOAD,2022-10-15 12:55:32,15.08841105,0.0001801,53.2161,120.8644,56.3378,303.7786,5.7182e-05,6.22e-06,0.0,0 STARLINK-3359,1 51148U 22005AW  22288.53857520  .00000622  00000-0  57182-4 0  9992,2 51148  53.2161 120.8644 0001801  56.3378 303.7786 15.08841105 41222,6917.877,95.437,540.988,538.496,0.0
51148.0,STARLINK-3359,PAYLOAD,2022-10-15 17:41:42,15.08844651,0.0001774,53.2163,119.9724,56.4158,303.7003,5.4608e-05,5.81e-06,0.0,0 STARLINK-3359,1 51148U 22005AW  22288.73729212  .00000581  00000-0  54608-4 0  9994,2 51148  53.2163 119.9724 0001774  56.4158 303.7003 15.08844651 41252,6917.866,95.437,540.9580000000002,538.504,0.0
51148.0,STARLINK-3359,PAYLOAD,2022-10-16 08:00:11,15.08837308,0.0001883,53.2166,117.297,54.1105,306.0061,-0.00011161,-2.064e-05,0.0,0 STARLINK-3359,1 51148U 22005AW  22289.33346119 -.00002064  00000-0 -11161-3 0  9998,2 51148  53.2166 117.2970 0001883  54.1105 306.0061 15.08837308 42451,6917.889,95.438,541.056,538.451,0.0
51148.0,STARLINK-3359,PAYLOAD,2022-10-16 19:07:52,15.08841251,0.0001942,53.216,115.2147,56.2325,303.8852,1.039e-05,-1.23e-06,0.0,0 STARLINK-3359,1 51148U 22005AW  22289.79713438 -.00000123  00000-0  10390-4 0  9997,2 51148  53.2160 115.2147 0001942  56.2325 303.8852 15.08841251 42525,6917.877,95.437,541.085,538.398,0.0
51148.0,STARLINK-3359,PAYLOAD,2022-10-17 07:50:58,15.08833886,0.0001841999999999,53.2159,112.8353,57.9112,302.2058,-0.00010084,-1.892e-05,0.0,0 STARLINK-3359,1 51148U 22005AW  22290.32706275 -.00001892  00000-0 -10084-3 0  9993,2 51148  53.2159 112.8353 0001842  57.9112 302.2058 15.08833886 42601,6917.899,95.438,541.038,538.49,0.0
51148.0,STARLINK-3359,PAYLOAD,2022-10-17 18:58:40,15.08834514,0.000188,53.2162,110.7538,56.6351,303.482,-1.1392000000000004e-07,-2.9e-06,0.0,0 STARLINK-3359,1 51148U 22005AW  22290.79074082 -.00000290  00000-0 -11392-6 0  9995,2 51148  53.2162 110.7538 0001880  56.6351 303.4820 15.08834514 41563,6917.897,95.438,541.063,538.462,0.0
51148.0,STARLINK-3359,PAYLOAD,2022-10-18 10:52:31,15.08838282,0.0001878,53.2165,107.7803,55.1319,304.985,6.9501e-05,8.18e-06,0.0,0 STARLINK-3359,1 51148U 22005AW  22291.45313873  .00000818  00000-0  69501-4 0  9990,2 51148  53.2165 107.7803 0001878  55.1319 304.9850 15.08838282 42771,6917.886,95.438,541.05,538.451,0.0
51148.0,STARLINK-3359,PAYLOAD,2022-10-18 18:49:26,15.08837818,0.0001913,53.2162,106.2928,57.052,303.0656,6.0314e-05,6.72e-06,0.0,0 STARLINK-3359,1 51148U 22005AW  22291.78433975  .00000672  00000-0  60314-4 0  9993,2 51148  53.2162 106.2928 0001913  57.0520 303.0656 15.08837818 41716,6917.887,95.438,541.075,538.429,0.0
51148.0,STARLINK-3359,PAYLOAD,2022-10-19 04:21:46,15.08832852,0.0001875999999999,53.2165,104.5095,54.7816,305.3351,-6.4188e-05,-1.309e-05,0.0,0 STARLINK-3359,1 51148U 22005AW  22292.18178814 -.00001309  00000-0 -64188-4 0  9999,2 51148  53.2165 104.5095 0001876  54.7816 305.3351 15.08832852 42884,6917.901999999999,95.438,541.065,538.469,0.0
51148.0,STARLINK-3359,PAYLOAD,2022-10-19 12:18:42,15.0883218,0.0001884,53.2166,103.0225,52.1564,307.9598,5.0773e-05,5.2e-06,0.0,0 STARLINK-3359,1 51148U 22005AW  22292.51298755  .00000520  00000-0  50773-4 0  9990,2 51148  53.2166 103.0225 0001884  52.1564 307.9598 15.08832180 41823,6917.904,95.438,541.073,538.466,0.0
51148.0,STARLINK-3359,PAYLOAD,2022-10-19 13:54:05,15.08833759,0.0001889999999999,53.2166,102.7251,52.6888,307.4276,6.3032e-05,7.15e-06,0.0,0 STARLINK-3359,1 51148U 22005AW  22292.57922642  .00000715  00000-0  63032-4 0  9993,2 51148  53.2166 102.7251 0001890  52.6888 307.4276 15.08833759 41831,6917.899,95.438,541.072,538.457,0.0
51148.0,STARLINK-3359,PAYLOAD,2022-10-19 21:51:00,15.08838924,0.000192,53.2166,101.2382,53.0121,307.1047,7.7292e-05,9.42e-06,0.0,0 STARLINK-3359,1 51148U 22005AW  22292.91042342  .00000942  00000-0  77292-4 0  9996,2 51148  53.2166 101.2382 0001920  53.0121 307.1047 15.08838924 42999,6917.884,95.438,541.077,538.42,0.0
